[{"OBJECT_NAME":"STARLINK-32459","OBJECT_ID":"2024-196J","EPOCH":"2025-08-27T05:14:06.680832","MEAN_MOTION":15.30197589,"ECCENTRICITY":0.00010194,"INCLINATION":53.1582,"RA_OF_ASC_NODE":284.532,"ARG_OF_PERICENTER":82.257,"MEAN_ANOMALY":277.8547,"EPHEMERIS_TYPE":0,"CLASSIFICATION_TYPE":"U","NORAD_CAT_ID":61715,"ELEMENT_SET_NO":999,"REV_AT_EPOCH":4738,"BSTAR":2.4509551e-5,"MEAN_MOTION_DOT":3.67e-6,"MEAN_MOTION_DDOT":0},{"OBJECT_NAME":"STARLINK-32465","OBJECT_ID":"2024-196K","EPOCH":"2025-08-27T02:57:40.653216","MEAN_MOTION":15.30189299,"ECCENTRICITY":0.00013838,"INCLINATION":53.1604,"RA_OF_ASC_NODE":285.3655,"ARG_OF_PERICENTER":78.6812,"MEAN_ANOMALY":281.4344,"EPHEMERIS_TYPE":0,"CLASSIFICATION_TYPE":"U","NORAD_CAT_ID":61716,"ELEMENT_SET_NO":999,"REV_AT_EPOCH":4736,"BSTAR":3.49505e-6,"MEAN_MOTION_DOT":-2.56e-6,"MEAN_MOTION_DDOT":0},{"OBJECT_NAME":"STARLINK-32457","OBJECT_ID":"2024-196L","EPOCH":"2025-08-26T10:20:54.959424","MEAN_MOTION":15.30193743,"ECCENTRICITY":9.9e-5,"INCLINATION":53.1594,"RA_OF_ASC_NODE":288.1527,"ARG_OF_PERICENTER":79.0187,"MEAN_ANOMALY":281.0925,"EPHEMERIS_TYPE":0,"CLASSIFICATION_TYPE":"U","NORAD_CAT_ID":61717,"ELEMENT_SET_NO":999,"REV_AT_EPOCH":4726,"BSTAR":2.1827405e-5,"MEAN_MOTION_DOT":2.87e-6,"MEAN_MOTION_DDOT":0},{"OBJECT_NAME":"STARLINK-32591","OBJECT_ID":"2024-196M","EPOCH":"2025-08-27T02:40:08.832576","MEAN_MOTION":15.30198347,"ECCENTRICITY":0.00011788,"INCLINATION":53.1593,"RA_OF_ASC_NODE":272.467,"ARG_OF_PERICENTER":75.5951,"MEAN_ANOMALY":284.518,"EPHEMERIS_TYPE":0,"CLASSIFICATION_TYPE":"U","NORAD_CAT_ID":61718,"ELEMENT_SET_NO":999,"REV_AT_EPOCH":4754,"BSTAR":2.7646617e-5,"MEAN_MOTION_DOT":4.6e-6,"MEAN_MOTION_DDOT":0},{"OBJECT_NAME":"STARLINK-32344","OBJECT_ID":"2024-196N","EPOCH":"2025-08-26T20:27:47.193984","MEAN_MOTION":15.30189634,"ECCENTRICITY":0.00012569,"INCLINATION":53.1612,"RA_OF_ASC_NODE":286.5172,"ARG_OF_PERICENTER":94.4827,"MEAN_ANOMALY":265.6318,"EPHEMERIS_TYPE":0,"CLASSIFICATION_TYPE":"U","NORAD_CAT_ID":61719,"ELEMENT_SET_NO":999,"REV_AT_EPOCH":4732,"BSTAR":1.3285963e-5,"MEAN_MOTION_DOT":3.4e-7,"MEAN_MOTION_DDOT":0},{"OBJECT_NAME":"STARLINK-32322","OBJECT_ID":"2024-196P","EPOCH":"2025-08-27T03:02:14.030592","MEAN_MOTION":15.30200673,"ECCENTRICITY":0.00012991,"INCLINATION":53.1596,"RA_OF_ASC_NODE":285.3832,"ARG_OF_PERICENTER":81.5533,"MEAN_ANOMALY":278.5615,"EPHEMERIS_TYPE":0,"CLASSIFICATION_TYPE":"U","NORAD_CAT_ID":61720,"ELEMENT_SET_NO":999,"REV_AT_EPOCH":4736,"BSTAR":-4.2147935e-5,"MEAN_MOTION_DOT":-1.607e-5,"MEAN_MOTION_DDOT":0},{"OBJECT_NAME":"STARLINK-32469","OBJECT_ID":"2024-196Q","EPOCH":"2025-08-27T03:26:22.556832","MEAN_MOTION":15.3020235,"ECCENTRICITY":0.00014045,"INCLINATION":53.1604,"RA_OF_ASC_NODE":284.7774,"ARG_OF_PERICENTER":83.1406,"MEAN_ANOMALY":276.9754,"EPHEMERIS_TYPE":0,"CLASSIFICATION_TYPE":"U","NORAD_CAT_ID":61721,"ELEMENT_SET_NO":999,"REV_AT_EPOCH":4737,"BSTAR":4.4236727e-5,"MEAN_MOTION_DOT":9.51e-6,"MEAN_MOTION_DDOT":0},{"OBJECT_NAME":"STARLINK-32438","OBJECT_ID":"2024-196R","EPOCH":"2025-08-26T20:36:53.982432","MEAN_MOTION":15.3019758,"ECCENTRICITY":0.0001352,"INCLINATION":53.1602,"RA_OF_ASC_NODE":286.5569,"ARG_OF_PERICENTER":87.4827,"MEAN_ANOMALY":272.6329,"EPHEMERIS_TYPE":0,"CLASSIFICATION_TYPE":"U","NORAD_CAT_ID":61722,"ELEMENT_SET_NO":999,"REV_AT_EPOCH":4732,"BSTAR":-1.5322167e-5,"MEAN_MOTION_DOT":-8.13e-6,"MEAN_MOTION_DDOT":0},{"OBJECT_NAME":"STARLINK-32540","OBJECT_ID":"2024-196S","EPOCH":"2025-08-27T01:19:00.996960","MEAN_MOTION":15.30171668,"ECCENTRICITY":0.00019414,"INCLINATION":53.1602,"RA_OF_ASC_NODE":249.5938,"ARG_OF_PERICENTER":109.069,"MEAN_ANOMALY":251.0521,"EPHEMERIS_TYPE":0,"CLASSIFICATION_TYPE":"U","NORAD_CAT_ID":61723,"ELEMENT_SET_NO":999,"REV_AT_EPOCH":4785,"BSTAR":9.3990867e-5,"MEAN_MOTION_DOT":2.423e-5,"MEAN_MOTION_DDOT":0},{"OBJECT_NAME":"STARLINK-32528","OBJECT_ID":"2024-196T","EPOCH":"2025-08-26T20:50:34.575936","MEAN_MOTION":15.30194044,"ECCENTRICITY":9.6e-5,"INCLINATION":53.1603,"RA_OF_ASC_NODE":286.6176,"ARG_OF_PERICENTER":84.7357,"MEAN_ANOMALY":275.3753,"EPHEMERIS_TYPE":0,"CLASSIFICATION_TYPE":"U","NORAD_CAT_ID":61724,"ELEMENT_SET_NO":999,"REV_AT_EPOCH":4612,"BSTAR":2.1712114e-5,"MEAN_MOTION_DOT":2.84e-6,"MEAN_MOTION_DDOT":0},{"OBJECT_NAME":"STARLINK-32573","OBJECT_ID":"2024-196U","EPOCH":"2025-08-27T02:39:26.368704","MEAN_MOTION":15.30184186,"ECCENTRICITY":9.771e-5,"INCLINATION":53.1592,"RA_OF_ASC_NODE":285.284,"ARG_OF_PERICENTER":96.7479,"MEAN_ANOMALY":263.3633,"EPHEMERIS_TYPE":0,"CLASSIFICATION_TYPE":"U","NORAD_CAT_ID":61725,"ELEMENT_SET_NO":999,"REV_AT_EPOCH":4736,"BSTAR":5.0304304e-5,"MEAN_MOTION_DOT":1.13e-5,"MEAN_MOTION_DDOT":0},{"OBJECT_NAME":"STARLINK-32478","OBJECT_ID":"2024-196V","EPOCH":"2025-08-26T20:12:37.580832","MEAN_MOTION":15.30175335,"ECCENTRICITY":0.00011387,"INCLINATION":53.159,"RA_OF_ASC_NODE":286.4515,"ARG_OF_PERICENTER":96.452,"MEAN_ANOMALY":263.661,"EPHEMERIS_TYPE":0,"CLASSIFICATION_TYPE":"U","NORAD_CAT_ID":61726,"ELEMENT_SET_NO":999,"REV_AT_EPOCH":4732,"BSTAR":-0.00012017772,"MEAN_MOTION_DOT":-3.914e-5,"MEAN_MOTION_DDOT":0},{"OBJECT_NAME":"STARLINK-32511","OBJECT_ID":"2024-196W","EPOCH":"2025-08-26T20:03:28.150272","MEAN_MOTION":15.30195259,"ECCENTRICITY":0.00011057,"INCLINATION":53.1591,"RA_OF_ASC_NODE":286.4106,"ARG_OF_PERICENTER":86.261,"MEAN_ANOMALY":273.8517,"EPHEMERIS_TYPE":0,"CLASSIFICATION_TYPE":"U","NORAD_CAT_ID":61727,"ELEMENT_SET_NO":999,"REV_AT_EPOCH":4732,"BSTAR":4.132885e-6,"MEAN_MOTION_DOT":-2.37e-6,"MEAN_MOTION_DDOT":0},{"OBJECT_NAME":"STARLINK-32475","OBJECT_ID":"2024-196X","EPOCH":"2025-08-27T03:44:36.697920","MEAN_MOTION":15.30206161,"ECCENTRICITY":0.00010648,"INCLINATION":53.1594,"RA_OF_ASC_NODE":284.8541,"ARG_OF_PERICENTER":81.6657,"MEAN_ANOMALY":278.4465,"EPHEMERIS_TYPE":0,"CLASSIFICATION_TYPE":"U","NORAD_CAT_ID":61728,"ELEMENT_SET_NO":999,"REV_AT_EPOCH":4737,"BSTAR":-3.523011e-5,"MEAN_MOTION_DOT":-1.402e-5,"MEAN_MOTION_DDOT":0},{"OBJECT_NAME":"STARLINK-32442","OBJECT_ID":"2024-196Y","EPOCH":"2025-08-27T03:49:10.321536","MEAN_MOTION":15.30197752,"ECCENTRICITY":0.00010428,"INCLINATION":53.1584,"RA_OF_ASC_NODE":284.873,"ARG_OF_PERICENTER":73.0268,"MEAN_ANOMALY":287.0847,"EPHEMERIS_TYPE":0,"CLASSIFICATION_TYPE":"U","NORAD_CAT_ID":61729,"ELEMENT_SET_NO":999,"REV_AT_EPOCH":4737,"BSTAR":3.8000935e-5,"MEAN_MOTION_DOT":7.67e-6,"MEAN_MOTION_DDOT":0},{"OBJECT_NAME":"STARLINK-32362","OBJECT_ID":"2024-202A","EPOCH":"2025-08-27T00:13:09.156864","MEAN_MOTION":15.2757594,"ECCENTRICITY":2.411e-5,"INCLINATION":43.0009,"RA_OF_ASC_NODE":246.2075,"ARG_OF_PERICENTER":292.9927,"MEAN_ANOMALY":67.09,"EPHEMERIS_TYPE":0,"CLASSIFICATION_TYPE":"U","NORAD_CAT_ID":61845,"ELEMENT_SET_NO":999,"REV_AT_EPOCH":4627,"BSTAR":-6.80817e-7,"MEAN_MOTION_DOT":-2.8e-6,"MEAN_MOTION_DDOT":0}]
