STARLINK-32459          
1 61715U 24196J   25239.21813288  .00000367  00000+0  24510-4 0  9997
2 61715  53.1582 284.5320 0001019  82.2570 277.8547 15.30197589 47385
STARLINK-32465          
1 61716U 24196K   25239.12338719 -.00000256  00000+0  34951-5 0  9998
2 61716  53.1604 285.3655 0001383  78.6812 281.4344 15.30189299 47366
STARLINK-32457          
1 61717U 24196L   25238.43119166  .00000287  00000+0  21827-4 0  9995
2 61717  53.1594 288.1527 0000990  79.0187 281.0925 15.30193743 47266
STARLINK-32591          
1 61718U 24196M   25239.11121334  .00000460  00000+0  27647-4 0  9991
2 61718  53.1593 272.4670 0001178  75.5951 284.5180 15.30198347 47547
STARLINK-32344          
1 61719U 24196N   25238.85262956  .00000034  00000+0  13286-4 0  9999
2 61719  53.1612 286.5172 0001256  94.4827 265.6318 15.30189634 47320
STARLINK-32322          
1 61720U 24196P   25239.12655128 -.00001607  00000+0 -42148-4 0  9997
2 61720  53.1596 285.3832 0001299  81.5533 278.5615 15.30200673 47365
STARLINK-32469          
1 61721U 24196Q   25239.14331663  .00000951  00000+0  44237-4 0  9995
2 61721  53.1604 284.7774 0001404  83.1406 276.9754 15.30202350 47370
STARLINK-32438          
1 61722U 24196R   25238.85895813 -.00000813  00000+0 -15322-4 0  9997
2 61722  53.1602 286.5569 0001352  87.4827 272.6329 15.30197580 47321
STARLINK-32540          
1 61723U 24196S   25239.05487265  .00002423  00000+0  93991-4 0  9994
2 61723  53.1602 249.5938 0001941 109.0690 251.0521 15.30171668 47856
STARLINK-32528          
1 61724U 24196T   25238.86845574  .00000284  00000+0  21712-4 0  9999
2 61724  53.1603 286.6176 0000960  84.7357 275.3753 15.30194044 46121
STARLINK-32573          
1 61725U 24196U   25239.11072186  .00001130  00000+0  50304-4 0  9990
2 61725  53.1592 285.2840 0000977  96.7479 263.3633 15.30184186 47365
STARLINK-32478          
1 61726U 24196V   25238.84210163 -.00003914  00000+0 -12018-3 0  9992
2 61726  53.1590 286.4515 0001138  96.4520 263.6610 15.30175335 47320
STARLINK-32511          
1 61727U 24196W   25238.83574248 -.00000237  00000+0  41329-5 0  9992
2 61727  53.1591 286.4106 0001105  86.2610 273.8517 15.30195259 47325
STARLINK-32475          
1 61728U 24196X   25239.15598030 -.00001402  00000+0 -35230-4 0  9993
2 61728  53.1594 284.8541 0001064  81.6657 278.4465 15.30206161 47371
STARLINK-32442          
1 61729U 24196Y   25239.15914724  .00000767  00000+0  38001-4 0  9996
2 61729  53.1584 284.8730 0001042  73.0268 287.0847 15.30197752 47375
STARLINK-32362          
1 61845U 24202A   25239.00913376 -.00000280  00000+0 -68082-6 0  9995
2 61845  43.0009 246.2075 0000241 292.9927  67.0900 15.27575940 46271
